{"spkid": "50126205", "covariance": {"epoch": "2452688.5", "elements": [{"units": null, "title": "eccentricity", "value": ".4904949458004934", "sigma": 2.79907287326954e-08, "name": "e", "label": "e"}, {"label": "q", "title": "perihelion distance", "value": "1.063301249300058", "units": "au", "name": "q", "sigma": 5.93681623858091e-08}, {"label": "tp", "name": "tp", "sigma": 2.95007266441647e-05, "units": "TDB", "value": "2452442.876900512732", "title": "time of perihelion passage"}, {"label": "node", "name": "om", "sigma": 0.000141842176174369, "value": "253.3829283502786", "title": "longitude of the ascending node", "units": "deg"}, {"units": "deg", "title": "argument of perihelion", "value": "13.900432910075", "name": "w", "sigma": 0.000143784567263072, "label": "peri"}, {"title": "inclination", "value": ".8185035921144661", "units": "deg", "name": "i", "sigma": 6.56185271592262e-06, "label": "i"}], "data": [["7.834808949873396E-16", "-1.658383582748312E-15", "3.307008281543391E-13", "1.512458287874078E-13", "2.141958805007865E-13", "-1.118481384591769E-14"], ["-1.658383582748312E-15", "3.524578705067801E-15", "-7.3516735359118E-13", "-3.343129008111953E-13", "-4.731423654087827E-13", "2.439480718145401E-14"], ["3.307008281543391E-13", "-7.3516735359118E-13", "8.702928725337306E-10", "1.925158575529797E-10", "7.195827225812534E-10", "-6.914815056701532E-12"], ["1.512458287874078E-13", "-3.343129008111953E-13", "1.925158575529797E-10", "2.011920294188084E-8", "-1.991608957304765E-8", "3.012058846031977E-10"], ["2.141958805007865E-13", "-4.731423654087827E-13", "7.195827225812534E-10", "-1.991608957304765E-8", "2.067400178302902E-8", "-3.085803266962978E-10"], ["-1.118481384591769E-14", "2.439480718145401E-14", "-6.914815056701532E-12", "3.012058846031977E-10", "-3.085803266962978E-10", "4.30579110654611E-11"]], "labels": ["e", "q", "tp", "node", "peri", "i"]}, "elements": [{"label": "e", "units": null, "value": ".4934304685829677", "title": "eccentricity", "sigma": "3.185E-8", "name": "e"}, {"units": "au", "title": "semi-major axis", "value": "2.090343880461784", "sigma": "7.4606E-9", "name": "a", "label": "a"}, {"sigma": "6.7757E-8", "name": "q", "title": "perihelion distance", "value": "1.058904520025987", "units": "au", "label": "q"}, {"label": "i", "units": "deg", "value": ".8259265558770769", "title": "inclination; angle with respect to x-y ecliptic plane", "sigma": "6.5526E-6", "name": "i"}, {"units": "deg", "title": "longitude of the ascending node", "value": "252.9216128263781", "sigma": ".00014159", "name": "om", "label": "node"}, {"units": "deg", "value": "14.92516825776368", "title": "argument of perihelion", "name": "w", "sigma": ".00014349", "label": "peri"}, {"label": "M", "title": "mean anomaly", "value": "335.3542486287625", "units": "deg", "name": "ma", "sigma": "1.2047E-5"}, {"label": "tp", "sigma": "3.7065E-5", "name": "tp", "units": "TDB", "title": "time of perihelion passage", "value": "2461276.072640223967"}, {"name": "per", "sigma": "5.9098E-6", "title": "sidereal orbital period", "value": "1103.888052379647", "units": "d", "label": "period"}, {"units": "deg/d", "title": "mean motion", "value": ".3261200256891534", "name": "n", "sigma": "1.7459E-9", "label": "n"}, {"sigma": "1.1142E-8", "name": "ad", "units": "au", "value": "3.121783240897582", "title": "aphelion distance", "label": "Q"}], "epoch": "2461200.5"}